[
  {
    "COMMENT": "GENERATED VIA SPACETRACK.ORG API",
    "ORIGINATOR": "18 SPCS",
    "NORAD_CAT_ID": "39086",
    "OBJECT_NAME": "SARAL",
    "OBJECT_TYPE": "PAYLOAD",
    "CLASSIFICATION_TYPE": "U",
    "INTLDES": "13009A",
    "EPOCH": "2023-05-30 13:32:16",
    "EPOCH_MICROSECONDS": "49760",
    "MEAN_MOTION": "14.32215892",
    "ECCENTRICITY": "0.000186",
    "INCLINATION": "98.548",
    "RA_OF_ASC_NODE": "336.1108",
    "ARG_OF_PERICENTER": "12.1919",
    "MEAN_ANOMALY": "347.9309",
    "EPHEMERIS_TYPE": "0",
    "ELEMENT_SET_NO": "999",
    "REV_AT_EPOCH": "53616",
    "BSTAR": "-0.00027396",
    "MEAN_MOTION_DOT": "-0.00000782",
    "MEAN_MOTION_DDOT": "0",
    "FILE": "3920920",
    "TLE_LINE0": "0 SARAL",
    "TLE_LINE1": "1 39086U 13009A   23150.56407465 -.00000782  00000-0 -27396-3 0  9996",
    "TLE_LINE2": "2 39086  98.5480 336.1108 0001860  12.1919 347.9309 14.32215892536165",
    "OBJECT_ID": "2013-009A",
    "OBJECT_NUMBER": "39086",
    "SEMIMAJOR_AXIS": "7162.471",
    "PERIOD": "100.544",
    "APOGEE": "785.668",
    "PERIGEE": "783.003",
    "DECAYED": "0"
  },
  {
    "COMMENT": "GENERATED VIA SPACETRACK.ORG API",
    "ORIGINATOR": "18 SPCS",
    "NORAD_CAT_ID": "39086",
    "OBJECT_NAME": "SARAL",
    "OBJECT_TYPE": "PAYLOAD",
    "CLASSIFICATION_TYPE": "U",
    "INTLDES": "13009A",
    "EPOCH": "2023-05-30 20:14:40",
    "EPOCH_MICROSECONDS": "314624",
    "MEAN_MOTION": "14.32215604",
    "ECCENTRICITY": "0.0001812",
    "INCLINATION": "98.548",
    "RA_OF_ASC_NODE": "336.3862",
    "ARG_OF_PERICENTER": "11.9251",
    "MEAN_ANOMALY": "348.1975",
    "EPHEMERIS_TYPE": "0",
    "ELEMENT_SET_NO": "999",
    "REV_AT_EPOCH": "53620",
    "BSTAR": "-0.00027284",
    "MEAN_MOTION_DOT": "-0.00000779",
    "MEAN_MOTION_DDOT": "0",
    "FILE": "3921192",
    "TLE_LINE0": "0 SARAL",
    "TLE_LINE1": "1 39086U 13009A   23150.84352216 -.00000779  00000-0 -27284-3 0  9992",
    "TLE_LINE2": "2 39086  98.5480 336.3862 0001812  11.9251 348.1975 14.32215604536205",
    "OBJECT_ID": "2013-009A",
    "OBJECT_NUMBER": "39086",
    "SEMIMAJOR_AXIS": "7162.472",
    "PERIOD": "100.544",
    "APOGEE": "785.634",
    "PERIGEE": "783.039",
    "DECAYED": "0"
  },
  {
    "COMMENT": "GENERATED VIA SPACETRACK.ORG API",
    "ORIGINATOR": "18 SPCS",
    "NORAD_CAT_ID": "39086",
    "OBJECT_NAME": "SARAL",
    "OBJECT_TYPE": "PAYLOAD",
    "CLASSIFICATION_TYPE": "U",
    "INTLDES": "13009A",
    "EPOCH": "2023-05-31 11:20:04",
    "EPOCH_MICROSECONDS": "819200",
    "MEAN_MOTION": "14.32217249",
    "ECCENTRICITY": "0.0001819",
    "INCLINATION": "98.5479",
    "RA_OF_ASC_NODE": "337.0059",
    "ARG_OF_PERICENTER": "10.6373",
    "MEAN_ANOMALY": "349.4849",
    "EPHEMERIS_TYPE": "0",
    "ELEMENT_SET_NO": "999",
    "REV_AT_EPOCH": "53629",
    "BSTAR": "-0.00027202",
    "MEAN_MOTION_DOT": "-0.00000776",
    "MEAN_MOTION_DDOT": "0",
    "FILE": "3921537",
    "TLE_LINE0": "0 SARAL",
    "TLE_LINE1": "1 39086U 13009A   23151.47227800 -.00000776  00000-0 -27202-3 0  9999",
    "TLE_LINE2": "2 39086  98.5479 337.0059 0001819  10.6373 349.4849 14.32217249536297",
    "OBJECT_ID": "2013-009A",
    "OBJECT_NUMBER": "39086",
    "SEMIMAJOR_AXIS": "7162.466",
    "PERIOD": "100.543",
    "APOGEE": "785.634",
    "PERIGEE": "783.028",
    "DECAYED": "0"
  },
  {
    "COMMENT": "GENERATED VIA SPACETRACK.ORG API",
    "ORIGINATOR": "18 SPCS",
    "NORAD_CAT_ID": "39086",
    "OBJECT_NAME": "SARAL",
    "OBJECT_TYPE": "PAYLOAD",
    "CLASSIFICATION_TYPE": "U",
    "INTLDES": "13009A",
    "EPOCH": "2023-05-31 13:00:40",
    "EPOCH_MICROSECONDS": "889088",
    "MEAN_MOTION": "14.32217077",
    "ECCENTRICITY": "0.0001814",
    "INCLINATION": "98.5479",
    "RA_OF_ASC_NODE": "337.0747",
    "ARG_OF_PERICENTER": "10.4316",
    "MEAN_ANOMALY": "349.6905",
    "EPHEMERIS_TYPE": "0",
    "ELEMENT_SET_NO": "999",
    "REV_AT_EPOCH": "53630",
    "BSTAR": "-0.00027575",
    "MEAN_MOTION_DOT": "-0.00000787",
    "MEAN_MOTION_DDOT": "0",
    "FILE": "3921767",
    "TLE_LINE0": "0 SARAL",
    "TLE_LINE1": "1 39086U 13009A   23151.54213992 -.00000787  00000-0 -27575-3 0  9999",
    "TLE_LINE2": "2 39086  98.5479 337.0747 0001814  10.4316 349.6905 14.32217077536307",
    "OBJECT_ID": "2013-009A",
    "OBJECT_NUMBER": "39086",
    "SEMIMAJOR_AXIS": "7162.467",
    "PERIOD": "100.543",
    "APOGEE": "785.631",
    "PERIGEE": "783.032",
    "DECAYED": "0"
  },
  {
    "COMMENT": "GENERATED VIA SPACETRACK.ORG API",
    "ORIGINATOR": "18 SPCS",
    "NORAD_CAT_ID": "39086",
    "OBJECT_NAME": "SARAL",
    "OBJECT_TYPE": "PAYLOAD",
    "CLASSIFICATION_TYPE": "U",
    "INTLDES": "13009A",
    "EPOCH": "2023-05-31 21:23:41",
    "EPOCH_MICROSECONDS": "188416",
    "MEAN_MOTION": "14.32216962",
    "ECCENTRICITY": "0.0001776",
    "INCLINATION": "98.548",
    "RA_OF_ASC_NODE": "337.4188",
    "ARG_OF_PERICENTER": "9.8695",
    "MEAN_ANOMALY": "350.2524",
    "EPHEMERIS_TYPE": "0",
    "ELEMENT_SET_NO": "999",
    "REV_AT_EPOCH": "53635",
    "BSTAR": "-0.00027359",
    "MEAN_MOTION_DOT": "-0.00000781",
    "MEAN_MOTION_DDOT": "0",
    "FILE": "3922037",
    "TLE_LINE0": "0 SARAL",
    "TLE_LINE1": "1 39086U 13009A   23151.89144894 -.00000781  00000-0 -27359-3 0  9995",
    "TLE_LINE2": "2 39086  98.5480 337.4188 0001776   9.8695 350.2524 14.32216962536353",
    "OBJECT_ID": "2013-009A",
    "OBJECT_NUMBER": "39086",
    "SEMIMAJOR_AXIS": "7162.467",
    "PERIOD": "100.543",
    "APOGEE": "785.604",
    "PERIGEE": "783.060",
    "DECAYED": "0"
  },
  {
    "COMMENT": "GENERATED VIA SPACETRACK.ORG API",
    "ORIGINATOR": "18 SPCS",
    "NORAD_CAT_ID": "39086",
    "OBJECT_NAME": "SARAL",
    "OBJECT_TYPE": "PAYLOAD",
    "CLASSIFICATION_TYPE": "U",
    "INTLDES": "13009A",
    "EPOCH": "2023-06-01 10:48:29",
    "EPOCH_MICROSECONDS": "707776",
    "MEAN_MOTION": "14.32216626",
    "ECCENTRICITY": "0.0001761",
    "INCLINATION": "98.5479",
    "RA_OF_ASC_NODE": "337.9696",
    "ARG_OF_PERICENTER": "8.8401",
    "MEAN_ANOMALY": "351.2813",
    "EPHEMERIS_TYPE": "0",
    "ELEMENT_SET_NO": "999",
    "REV_AT_EPOCH": "53643",
    "BSTAR": "-0.00027237",
    "MEAN_MOTION_DOT": "-0.00000777",
    "MEAN_MOTION_DDOT": "0",
    "FILE": "3922365",
    "TLE_LINE0": "0 SARAL",
    "TLE_LINE1": "1 39086U 13009A   23152.45034384 -.00000777  00000-0 -27237-3 0  9990",
    "TLE_LINE2": "2 39086  98.5479 337.9696 0001761   8.8401 351.2813 14.32216626536436",
    "OBJECT_ID": "2013-009A",
    "OBJECT_NUMBER": "39086",
    "SEMIMAJOR_AXIS": "7162.468",
    "PERIOD": "100.543",
    "APOGEE": "785.594",
    "PERIGEE": "783.072",
    "DECAYED": "0"
  },
  {
    "COMMENT": "GENERATED VIA SPACETRACK.ORG API",
    "ORIGINATOR": "18 SPCS",
    "NORAD_CAT_ID": "39086",
    "OBJECT_NAME": "SARAL",
    "OBJECT_TYPE": "PAYLOAD",
    "CLASSIFICATION_TYPE": "U",
    "INTLDES": "13009A",
    "EPOCH": "2023-06-01 12:29:05",
    "EPOCH_MICROSECONDS": "750016",
    "MEAN_MOTION": "14.32216434",
    "ECCENTRICITY": "0.0001763",
    "INCLINATION": "98.548",
    "RA_OF_ASC_NODE": "338.0385",
    "ARG_OF_PERICENTER": "8.2894",
    "MEAN_ANOMALY": "351.8319",
    "EPHEMERIS_TYPE": "0",
    "ELEMENT_SET_NO": "999",
    "REV_AT_EPOCH": "53644",
    "BSTAR": "-0.00028112",
    "MEAN_MOTION_DOT": "-0.00000801",
    "MEAN_MOTION_DDOT": "0",
    "FILE": "3922403",
    "TLE_LINE0": "0 SARAL",
    "TLE_LINE1": "1 39086U 13009A   23152.52020544 -.00000801  00000-0 -28112-3 0  9992",
    "TLE_LINE2": "2 39086  98.5480 338.0385 0001763   8.2894 351.8319 14.32216434536442",
    "OBJECT_ID": "2013-009A",
    "OBJECT_NUMBER": "39086",
    "SEMIMAJOR_AXIS": "7162.469",
    "PERIOD": "100.543",
    "APOGEE": "785.596",
    "PERIGEE": "783.071",
    "DECAYED": "0"
  },
  {
    "COMMENT": "GENERATED VIA SPACETRACK.ORG API",
    "ORIGINATOR": "18 SPCS",
    "NORAD_CAT_ID": "39086",
    "OBJECT_NAME": "SARAL",
    "OBJECT_TYPE": "PAYLOAD",
    "CLASSIFICATION_TYPE": "U",
    "INTLDES": "13009A",
    "EPOCH": "2023-06-01 20:52:06",
    "EPOCH_MICROSECONDS": "90816",
    "MEAN_MOTION": "14.32216028",
    "ECCENTRICITY": "0.0001745",
    "INCLINATION": "98.548",
    "RA_OF_ASC_NODE": "338.3828",
    "ARG_OF_PERICENTER": "7.1797",
    "MEAN_ANOMALY": "352.9411",
    "EPHEMERIS_TYPE": "0",
    "ELEMENT_SET_NO": "999",
    "REV_AT_EPOCH": "53649",
    "BSTAR": "-0.0002781",
    "MEAN_MOTION_DOT": "-0.00000793",
    "MEAN_MOTION_DDOT": "0",
    "FILE": "3922718",
    "TLE_LINE0": "0 SARAL",
    "TLE_LINE1": "1 39086U 13009A   23152.86951494 -.00000793  00000-0 -27810-3 0  9990",
    "TLE_LINE2": "2 39086  98.5480 338.3828 0001745   7.1797 352.9411 14.32216028536496",
    "OBJECT_ID": "2013-009A",
    "OBJECT_NUMBER": "39086",
    "SEMIMAJOR_AXIS": "7162.470",
    "PERIOD": "100.543",
    "APOGEE": "785.585",
    "PERIGEE": "783.085",
    "DECAYED": "0"
  },
  {
    "COMMENT": "GENERATED VIA SPACETRACK.ORG API",
    "ORIGINATOR": "18 SPCS",
    "NORAD_CAT_ID": "39086",
    "OBJECT_NAME": "SARAL",
    "OBJECT_TYPE": "PAYLOAD",
    "CLASSIFICATION_TYPE": "U",
    "INTLDES": "13009A",
    "EPOCH": "2023-06-02 13:38:06",
    "EPOCH_MICROSECONDS": "584064",
    "MEAN_MOTION": "14.3221702",
    "ECCENTRICITY": "0.0001703",
    "INCLINATION": "98.5481",
    "RA_OF_ASC_NODE": "339.0711",
    "ARG_OF_PERICENTER": "4.6313",
    "MEAN_ANOMALY": "355.4886",
    "EPHEMERIS_TYPE": "0",
    "ELEMENT_SET_NO": "999",
    "REV_AT_EPOCH": "53659",
    "BSTAR": "-0.00029382",
    "MEAN_MOTION_DOT": "-0.00000835",
    "MEAN_MOTION_DDOT": "0",
    "FILE": "3923342",
    "TLE_LINE0": "0 SARAL",
    "TLE_LINE1": "1 39086U 13009A   23153.56813176 -.00000835  00000-0 -29382-3 0  9995",
    "TLE_LINE2": "2 39086  98.5481 339.0711 0001703   4.6313 355.4886 14.32217020536594",
    "OBJECT_ID": "2013-009A",
    "OBJECT_NUMBER": "39086",
    "SEMIMAJOR_AXIS": "7162.467",
    "PERIOD": "100.543",
    "APOGEE": "785.552",
    "PERIGEE": "783.112",
    "DECAYED": "0"
  }
]